{"fetched_at":"2026-07-13T07:48:51.873Z","source":"https://celestrak.org/NORAD/elements/gp.php?NAME=WORLDVIEW&FORMAT=JSON","constellation":"worldview","records":[{"OBJECT_NAME":"WORLDVIEW-1 (WV-1)","OBJECT_ID":"2007-041A","EPOCH":"2026-07-12T18:15:44.349408","CLASSIFICATION_TYPE":"U","MEAN_MOTION":15.24542474,"ECCENTRICITY":0.00013,"INCLINATION":97.39,"RA_OF_ASC_NODE":313.1448,"ARG_OF_PERICENTER":218.195,"MEAN_ANOMALY":141.9196,"EPHEMERIS_TYPE":0,"NORAD_CAT_ID":32060,"ELEMENT_SET_NO":999,"REV_AT_EPOCH":4677,"BSTAR":0.00015166,"MEAN_MOTION_DOT":0.00003661,"MEAN_MOTION_DDOT":0},{"OBJECT_NAME":"WORLDVIEW-2 (WV-2)","OBJECT_ID":"2009-055A","EPOCH":"2026-07-12T20:11:01.649184","CLASSIFICATION_TYPE":"U","MEAN_MOTION":14.37906539,"ECCENTRICITY":0.0005213,"INCLINATION":98.4757,"RA_OF_ASC_NODE":266.9413,"ARG_OF_PERICENTER":135.5583,"MEAN_ANOMALY":224.6023,"EPHEMERIS_TYPE":0,"NORAD_CAT_ID":35946,"ELEMENT_SET_NO":999,"REV_AT_EPOCH":87933,"BSTAR":0.000025061,"MEAN_MOTION_DOT":3.2e-7,"MEAN_MOTION_DDOT":0},{"OBJECT_NAME":"WORLDVIEW-3 (WV-3)","OBJECT_ID":"2014-048A","EPOCH":"2026-07-12T20:08:02.319072","CLASSIFICATION_TYPE":"U","MEAN_MOTION":14.85062139,"ECCENTRICITY":0.0001118,"INCLINATION":97.8558,"RA_OF_ASC_NODE":268.3169,"ARG_OF_PERICENTER":159.5544,"MEAN_ANOMALY":200.5716,"EPHEMERIS_TYPE":0,"NORAD_CAT_ID":40115,"ELEMENT_SET_NO":999,"REV_AT_EPOCH":64571,"BSTAR":0.00005714,"MEAN_MOTION_DOT":0.00000435,"MEAN_MOTION_DDOT":0}]}
